*******************************************************************************
JPL/HORIZONS              1200 Imperatrix (1931 RH)        2023-Sep-04 11:10:47
Rec #:    1200 (+COV) Soln.date: 2023-Aug-21_18:02:25   # obs: 4633 (1915-2023)
 
IAU76/J2000 helio. ecliptic osc. elements (au, days, deg., period=Julian yrs):
 
  EPOCH=  2457164.5 ! 2015-May-22.00 (TDB)         Residual RMS= .26493
   EC= .1046011973821678   QR= 2.743333545663527   TP= 2457373.9574774303
   OM= 204.7818295826744   W=  51.3323533484044    IN= 4.593290550358861
   A= 3.06381194350828     MA= 321.5047818110853   ADIST= 3.384290341353033
   PER= 5.36292            N= .183785361           ANGMOM= .029944944
   DAN= 2.84439            DDN= 3.24218            L= 256.024236
   B= 3.5848629            MOID= 1.73164999        TP= 2015-Dec-17.4574774303
 
Asteroid physical parameters (km, seconds, rotational period in hours):
   GM= n.a.                RAD= 21.003             ROTPER= 17.769
   H= 10.98                G= .150                 B-V= n.a.
                           ALBEDO= .065            STYP= n.a.

ASTEROID comments: 
1: soln ref.= JPL#68, OCC=0
2: source=ORB
*******************************************************************************


*******************************************************************************
Ephemeris / API_USER Mon Sep  4 11:10:47 2023 Pasadena, USA      / Horizons
*******************************************************************************
Target body name: 1200 Imperatrix (1931 RH)       {source: JPL#68}
Center body name: Solar System Barycenter (0)     {source: DE441}
Center-site name: BODY CENTER
*******************************************************************************
Start time      : A.D. 2023-Aug-12 00:00:00.0000 TDB
Stop  time      : A.D. 2023-Aug-13 00:00:00.0000 TDB
Step-size       : 2880 minutes
*******************************************************************************
Center geodetic : 0.0, 0.0, 0.0                   {E-lon(deg),Lat(deg),Alt(km)}
Center cylindric: 0.0, 0.0, 0.0                   {E-lon(deg),Dxy(km),Dz(km)}
Center radii    : (undefined)
Small perturbers: Yes                             {source: SB441-N16}
Output units    : KM-S
Calendar mode   : Mixed Julian/Gregorian
Output type     : GEOMETRIC cartesian states
Output format   : 2 (position and velocity)
Reference frame : Ecliptic of J2000.0
*******************************************************************************
Initial IAU76/J2000 heliocentric ecliptic osculating elements (au, days, deg.):
  EPOCH=  2457164.5 ! 2015-May-22.00 (TDB)         Residual RMS= .26493        
   EC= .1046011973821678   QR= 2.743333545663527   TP= 2457373.9574774303      
   OM= 204.7818295826744   W=  51.3323533484044    IN= 4.593290550358861       
  Equivalent ICRF heliocentric cartesian coordinates (au, au/d):
   X=-2.465268816660743E+00  Y=-1.277824054558695E+00  Z=-5.343849065362015E-01
  VX= 5.831519091257325E-03 VY=-8.437255610614119E-03 VZ=-2.741819168824582E-03
Asteroid physical parameters (km, seconds, rotational period in hours):        
   GM= n.a.                RAD= 21.003             ROTPER= 17.769              
   H= 10.98                G= .150                 B-V= n.a.                   
                           ALBEDO= .065            STYP= n.a.                  
*******************************************************************************
JDTDB
   X     Y     Z
   VX    VY    VZ
*******************************************************************************
$$SOE
2460168.500000000 = A.D. 2023-Aug-12 00:00:00.0000 TDB 
 X = 2.927304751337643E+08 Y = 4.085752758252143E+08 Z =-2.008819196402563E+07
 VX=-1.204571451571650E+01 VY= 9.511354628750544E+00 VZ=-1.104280961274948E+00
$$EOE
*******************************************************************************
 
TIME

  Barycentric Dynamical Time ("TDB" or T_eph) output was requested. This
continuous coordinate time is equivalent to the relativistic proper time
of a clock at rest in a reference frame co-moving with the solar system
barycenter but outside the system's gravity well. It is the independent
variable in the solar system relativistic equations of motion.

  TDB runs at a uniform rate of one SI second per second and is independent
of irregularities in Earth's rotation.
 
CALENDAR SYSTEM

  Mixed calendar mode was active such that calendar dates after AD 1582-Oct-15
(if any) are in the modern Gregorian system. Dates prior to 1582-Oct-5 (if any)
are in the Julian calendar system, which is automatically extended for dates
prior to its adoption on 45-Jan-1 BC.  The Julian calendar is useful for
matching historical dates. The Gregorian calendar more accurately corresponds
to the Earth's orbital motion and seasons. A "Gregorian-only" calendar mode is
available if such physical events are the primary interest.

REFERENCE FRAME AND COORDINATES

  Ecliptic at the standard reference epoch

    Reference epoch: J2000.0
    X-Y plane: adopted Earth orbital plane at the reference epoch
               Note: IAU76 obliquity of 84381.448 arcseconds wrt ICRF X-Y plane
    X-axis   : ICRF
    Z-axis   : perpendicular to the X-Y plane in the directional (+ or -) sense
               of Earth's north pole at the reference epoch.

  Symbol meaning:

    JDTDB    Julian Day Number, Barycentric Dynamical Time
      X      X-component of position vector (km)
      Y      Y-component of position vector (km)
      Z      Z-component of position vector (km)
      VX     X-component of velocity vector (km/sec)                           
      VY     Y-component of velocity vector (km/sec)                           
      VZ     Z-component of velocity vector (km/sec)                           

ABERRATIONS AND CORRECTIONS

 Geometric state vectors have NO corrections or aberrations applied.

Computations by ...

    Solar System Dynamics Group, Horizons On-Line Ephemeris System
    4800 Oak Grove Drive, Jet Propulsion Laboratory
    Pasadena, CA  91109   USA

    General site: https://ssd.jpl.nasa.gov/
    Mailing list: https://ssd.jpl.nasa.gov/email_list.html
    System news : https://ssd.jpl.nasa.gov/horizons/news.html
    User Guide  : https://ssd.jpl.nasa.gov/horizons/manual.html
    Connect     : browser        https://ssd.jpl.nasa.gov/horizons/app.html#/x
                  API            https://ssd-api.jpl.nasa.gov/doc/horizons.html
                  command-line   telnet ssd.jpl.nasa.gov 6775
                  e-mail/batch   https://ssd.jpl.nasa.gov/ftp/ssd/hrzn_batch.txt
                  scripts        https://ssd.jpl.nasa.gov/ftp/ssd/SCRIPTS
    Author      : Jon.D.Giorgini@jpl.nasa.gov
*******************************************************************************
